start=new Date('2021-09-12T00:00:00.000Z').valueOf();
sats=[{"RCS_SIZE":"LARGE","RA_OF_ASC_NODE":"255.3466","BSTAR":"-0.00027317000000","EPHEMERIS_TYPE":"0","INCLINATION":"53.0535","COUNTRY_CODE":"US","DECAY_DATE":null,"MEAN_ELEMENT_THEORY":"SGP4","OBJECT_TYPE":"PAYLOAD","PERIAPSIS":"546.764","TLE_LINE2":"2 48303  53.0535 255.3466 0000567   5.3483 354.7512 15.06418645 20934","MEAN_MOTION_DOT":"-0.00004350","LAUNCH_DATE":"2021-04-29","OBJECT_ID":"2021-036AD","ECCENTRICITY":"0.00005670","TLE_LINE1":"1 48303U 21036AD  21254.35828656 -.00004350  00000-0 -27317-3 0  9994","SEMIMAJOR_AXIS":"6925.291","FILE":"3113181","CENTER_NAME":"EARTH","NORAD_CAT_ID":"48303","EPOCH":"2021-09-11T08:35:55.958784","MEAN_MOTION":"15.06418645","APOAPSIS":"547.549","SITE":"AFETR","REF_FRAME":"TEME","OBJECT_NAME":"STARLINK-2530","ARG_OF_PERICENTER":"5.3483","REV_AT_EPOCH":"2093","MEAN_ANOMALY":"354.7512","GP_ID":"184506853","TIME_SYSTEM":"UTC","MEAN_MOTION_DDOT":"0.0000000000000","PERIOD":"95.591","CLASSIFICATION_TYPE":"U","ELEMENT_SET_NO":"999"},{"MEAN_MOTION_DOT":"-0.00001205","LAUNCH_DATE":"2021-04-29","OBJECT_ID":"2021-036AE","ECCENTRICITY":"0.00007610","TLE_LINE1":"1 48304U 21036AE  21254.42095932 -.00001205  00000-0 -62030-4 0  9994","SEMIMAJOR_AXIS":"6925.370","FILE":"3113181","BSTAR":"-0.00006203000000","EPHEMERIS_TYPE":"0","INCLINATION":"53.0545","COUNTRY_CODE":"US","DECAY_DATE":null,"RCS_SIZE":"LARGE","RA_OF_ASC_NODE":"255.0646","TLE_LINE2":"2 48304  53.0545 255.0646 0000761  28.8807 331.2224 15.06392967 20948","PERIAPSIS":"546.708","OBJECT_TYPE":"PAYLOAD","MEAN_ELEMENT_THEORY":"SGP4","MEAN_ANOMALY":"331.2224","TIME_SYSTEM":"UTC","GP_ID":"184507604","MEAN_MOTION_DDOT":"0.0000000000000","OBJECT_NAME":"STARLINK-2524","ARG_OF_PERICENTER":"28.8807","REV_AT_EPOCH":"2094","ELEMENT_SET_NO":"999","PERIOD":"95.593","CLASSIFICATION_TYPE":"U","CENTER_NAME":"EARTH","REF_FRAME":"TEME","NORAD_CAT_ID":"48304","EPOCH":"2021-09-11T10:06:10.885248","MEAN_MOTION":"15.06392967","APOAPSIS":"547.762","SITE":"AFETR"},{"PERIAPSIS":"546.612","TLE_LINE2":"2 48305  53.0542 254.7782 0000896  38.5767 321.5286 15.06393712 20955","MEAN_ELEMENT_THEORY":"SGP4","OBJECT_TYPE":"PAYLOAD","DECAY_DATE":null,"COUNTRY_CODE":"US","BSTAR":"-0.00002730500000","INCLINATION":"53.0542","EPHEMERIS_TYPE":"0","RA_OF_ASC_NODE":"254.7782","RCS_SIZE":"LARGE","FILE":"3113379","TLE_LINE1":"1 48305U 21036AF  21254.48362042 -.00000688  00000-0 -27305-4 0  9990","ECCENTRICITY":"0.00008960","SEMIMAJOR_AXIS":"6925.368","OBJECT_ID":"2021-036AF","LAUNCH_DATE":"2021-04-29","MEAN_MOTION_DOT":"-0.00000688","REF_FRAME":"TEME","SITE":"AFETR","APOAPSIS":"547.853","NORAD_CAT_ID":"48305","MEAN_MOTION":"15.06393712","EPOCH":"2021-09-11T11:36:24.804288","CENTER_NAME":"EARTH","ELEMENT_SET_NO":"999","PERIOD":"95.593","CLASSIFICATION_TYPE":"U","MEAN_ANOMALY":"321.5286","MEAN_MOTION_DDOT":"0.0000000000000","GP_ID":"184535461","TIME_SYSTEM":"UTC","REV_AT_EPOCH":"2095","OBJECT_NAME":"STARLINK-2519","ARG_OF_PERICENTER":"38.5767"},{"NORAD_CAT_ID":"48306","MEAN_MOTION":"15.06391041","EPOCH":"2021-09-11T11:31:06.328704","APOAPSIS":"547.729","SITE":"AFETR","REF_FRAME":"TEME","CENTER_NAME":"EARTH","PERIOD":"95.593","CLASSIFICATION_TYPE":"U","ELEMENT_SET_NO":"999","OBJECT_NAME":"STARLINK-2523","ARG_OF_PERICENTER":"46.5879","REV_AT_EPOCH":"2095","MEAN_ANOMALY":"313.5169","GP_ID":"184534709","MEAN_MOTION_DDOT":"0.0000000000000","TIME_SYSTEM":"UTC","MEAN_ELEMENT_THEORY":"SGP4","OBJECT_TYPE":"PAYLOAD","TLE_LINE2":"2 48306  53.0551 254.8002 0000704  46.5879 313.5169 15.06391041 20957","PERIAPSIS":"546.753","RCS_SIZE":"LARGE","RA_OF_ASC_NODE":"254.8002","BSTAR":"-0.00007270900000","INCLINATION":"53.0551","EPHEMERIS_TYPE":"0","DECAY_DATE":null,"COUNTRY_CODE":"US","TLE_LINE1":"1 48306U 21036AG  21254.47993436 -.00001364  00000-0 -72709-4 0  9997","SEMIMAJOR_AXIS":"6925.376","ECCENTRICITY":"0.00007040","FILE":"3113379","MEAN_MOTION_DOT":"-0.00001364","OBJECT_ID":"2021-036AG","LAUNCH_DATE":"2021-04-29"},{"COUNTRY_CODE":"US","DECAY_DATE":null,"BSTAR":"0.00008885100000","EPHEMERIS_TYPE":"0","INCLINATION":"53.0543","RA_OF_ASC_NODE":"255.1098","RCS_SIZE":"LARGE","PERIAPSIS":"546.829","TLE_LINE2":"2 48307  53.0543 255.1098 0000597  19.7940 340.3072 15.06390687 20944","MEAN_ELEMENT_THEORY":"SGP4","OBJECT_TYPE":"PAYLOAD","LAUNCH_DATE":"2021-04-29","OBJECT_ID":"2021-036AH","MEAN_MOTION_DOT":"0.00001042","FILE":"3113181","ECCENTRICITY":"0.00005970","TLE_LINE1":"1 48307U 21036AH  21254.40990928  .00001042  00000-0  88851-4 0  9990","SEMIMAJOR_AXIS":"6925.377","CENTER_NAME":"EARTH","REF_FRAME":"TEME","APOAPSIS":"547.656","SITE":"AFETR","NORAD_CAT_ID":"48307","EPOCH":"2021-09-11T09:50:16.161792","MEAN_MOTION":"15.06390687","MEAN_ANOMALY":"340.3072","GP_ID":"184507354","TIME_SYSTEM":"UTC","MEAN_MOTION_DDOT":"0.0000000000000","REV_AT_EPOCH":"2094","OBJECT_NAME":"STARLINK-2528","ARG_OF_PERICENTER":"19.7940","ELEMENT_SET_NO":"999","PERIOD":"95.593","CLASSIFICATION_TYPE":"U"},{"RCS_SIZE":"LARGE","RA_OF_ASC_NODE":"255.1298","INCLINATION":"53.0549","EPHEMERIS_TYPE":"0","BSTAR":"0.00008663100000","COUNTRY_CODE":"US","DECAY_DATE":null,"OBJECT_TYPE":"PAYLOAD","MEAN_ELEMENT_THEORY":"SGP4","TLE_LINE2":"2 48308  53.0549 255.1298 0000698  43.0601 317.0443 15.06397443 20949","PERIAPSIS":"546.738","MEAN_MOTION_DOT":"0.00001009","LAUNCH_DATE":"2021-04-29","OBJECT_ID":"2021-036AJ","TLE_LINE1":"1 48308U 21036AJ  21254.40622133  .00001009  00000-0  86631-4 0  9998","ECCENTRICITY":"0.00006980","SEMIMAJOR_AXIS":"6925.356","FILE":"3113181","CENTER_NAME":"EARTH","EPOCH":"2021-09-11T09:44:57.522912","MEAN_MOTION":"15.06397443","NORAD_CAT_ID":"48308","APOAPSIS":"547.705","SITE":"AFETR","REF_FRAME":"TEME","ARG_OF_PERICENTER":"43.0601","OBJECT_NAME":"STARLINK-2532","REV_AT_EPOCH":"2094","TIME_SYSTEM":"UTC","GP_ID":"184508105","MEAN_MOTION_DDOT":"0.0000000000000","MEAN_ANOMALY":"317.0443","CLASSIFICATION_TYPE":"U","PERIOD":"95.592","ELEMENT_SET_NO":"999"},{"MEAN_ELEMENT_THEORY":"SGP4","OBJECT_TYPE":"PAYLOAD","TLE_LINE2":"2 48309  53.0561 255.1545 0000761  52.7828 307.3230 15.06403869 20944","PERIAPSIS":"546.675","RCS_SIZE":"LARGE","RA_OF_ASC_NODE":"255.1545","INCLINATION":"53.0561","EPHEMERIS_TYPE":"0","BSTAR":"0.00011268000000","DECAY_DATE":null,"COUNTRY_CODE":"US","ECCENTRICITY":"0.00007610","TLE_LINE1":"1 48309U 21036AK  21254.40252342  .00001398  00000-0  11268-3 0  9994","SEMIMAJOR_AXIS":"6925.337","FILE":"3113181","MEAN_MOTION_DOT":"0.00001398","LAUNCH_DATE":"2021-04-29","OBJECT_ID":"2021-036AK","EPOCH":"2021-09-11T09:39:38.023488","MEAN_MOTION":"15.06403869","NORAD_CAT_ID":"48309","APOAPSIS":"547.729","SITE":"AFETR","REF_FRAME":"TEME","CENTER_NAME":"EARTH","CLASSIFICATION_TYPE":"U","PERIOD":"95.592","ELEMENT_SET_NO":"999","ARG_OF_PERICENTER":"52.7828","OBJECT_NAME":"STARLINK-2517","REV_AT_EPOCH":"2094","GP_ID":"184508353","TIME_SYSTEM":"UTC","MEAN_MOTION_DDOT":"0.0000000000000","MEAN_ANOMALY":"307.3230"},{"RCS_SIZE":"LARGE","RA_OF_ASC_NODE":"255.1587","EPHEMERIS_TYPE":"0","INCLINATION":"53.0541","BSTAR":"0.00006027100000","DECAY_DATE":null,"COUNTRY_CODE":"US","OBJECT_TYPE":"PAYLOAD","MEAN_ELEMENT_THEORY":"SGP4","PERIAPSIS":"546.716","TLE_LINE2":"2 48310  53.0541 255.1587 0000697  33.7878 326.3155 15.06404806 20941","MEAN_MOTION_DOT":"0.00000617","OBJECT_ID":"2021-036AL","LAUNCH_DATE":"2021-04-29","TLE_LINE1":"1 48310U 21036AL  21254.39882795  .00000617  00000-0  60271-4 0  9997","ECCENTRICITY":"0.00006970","SEMIMAJOR_AXIS":"6925.334","FILE":"3113181","CENTER_NAME":"EARTH","MEAN_MOTION":"15.06404806","EPOCH":"2021-09-11T09:34:18.734880","NORAD_CAT_ID":"48310","APOAPSIS":"547.682","SITE":"AFETR","REF_FRAME":"TEME","ARG_OF_PERICENTER":"33.7878","OBJECT_NAME":"STARLINK-2536","REV_AT_EPOCH":"2094","MEAN_MOTION_DDOT":"0.0000000000000","GP_ID":"184508601","TIME_SYSTEM":"UTC","MEAN_ANOMALY":"326.3155","CLASSIFICATION_TYPE":"U","PERIOD":"95.592","ELEMENT_SET_NO":"999"},{"ELEMENT_SET_NO":"999","CLASSIFICATION_TYPE":"U","PERIOD":"95.593","GP_ID":"184506854","TIME_SYSTEM":"UTC","MEAN_MOTION_DDOT":"0.0000000000000","MEAN_ANOMALY":"307.9938","ARG_OF_PERICENTER":"52.1124","OBJECT_NAME":"STARLINK-2534","REV_AT_EPOCH":"2094","REF_FRAME":"TEME","MEAN_MOTION":"15.06393579","EPOCH":"2021-09-11T09:29:01.532832","NORAD_CAT_ID":"48311","SITE":"AFETR","APOAPSIS":"547.789","CENTER_NAME":"EARTH","TLE_LINE1":"1 48311U 21036AM  21254.39515663 -.00000729  00000-0 -30075-4 0  9990","SEMIMAJOR_AXIS":"6925.368","ECCENTRICITY":"0.00008030","FILE":"3113181","MEAN_MOTION_DOT":"-0.00000729","OBJECT_ID":"2021-036AM","LAUNCH_DATE":"2021-04-29","TLE_LINE2":"2 48311  53.0552 255.1819 0000803  52.1124 307.9938 15.06393579 20948","PERIAPSIS":"546.677","OBJECT_TYPE":"PAYLOAD","MEAN_ELEMENT_THEORY":"SGP4","INCLINATION":"53.0552","EPHEMERIS_TYPE":"0","BSTAR":"-0.00003007500000","COUNTRY_CODE":"US","DECAY_DATE":null,"RCS_SIZE":"LARGE","RA_OF_ASC_NODE":"255.1819"},{"FILE":"3113181","ECCENTRICITY":"0.00007670","TLE_LINE1":"1 48312U 21036AN  21254.39147329  .00001079  00000-0  91342-4 0  9992","SEMIMAJOR_AXIS":"6925.369","OBJECT_ID":"2021-036AN","LAUNCH_DATE":"2021-04-29","MEAN_MOTION_DOT":"0.00001079","TLE_LINE2":"2 48312  53.0555 255.2022 0000767  51.2872 308.8186 15.06393396 20940","PERIAPSIS":"546.703","MEAN_ELEMENT_THEORY":"SGP4","OBJECT_TYPE":"PAYLOAD","COUNTRY_CODE":"US","DECAY_DATE":null,"BSTAR":"0.00009134200000","INCLINATION":"53.0555","EPHEMERIS_TYPE":"0","RA_OF_ASC_NODE":"255.2022","RCS_SIZE":"LARGE","ELEMENT_SET_NO":"999","PERIOD":"95.593","CLASSIFICATION_TYPE":"U","MEAN_ANOMALY":"308.8186","MEAN_MOTION_DDOT":"0.0000000000000","GP_ID":"184507605","TIME_SYSTEM":"UTC","REV_AT_EPOCH":"2094","OBJECT_NAME":"STARLINK-2061","ARG_OF_PERICENTER":"51.2872","REF_FRAME":"TEME","APOAPSIS":"547.765","SITE":"AFETR","NORAD_CAT_ID":"48312","MEAN_MOTION":"15.06393396","EPOCH":"2021-09-11T09:23:43.292256","CENTER_NAME":"EARTH"}];
